{
  "norad_id": 40072,
  "name": "SKYSAT-B",
  "history": [
    {
      "epoch": "2026-03-28T19:55:28.178400Z",
      "apogee_km": 608.7931017900182,
      "perigee_km": 600.8537551012923,
      "latitude_deg": -3.0672324464795696e-05,
      "longitude_deg": -82.84541130005846,
      "height_km": 611.6801800443094,
      "semi_major_axis_km": 6982.9604284456545,
      "eccentricity": 0.00056848,
      "inclination_deg": 98.3759,
      "raan_deg": 42.267,
      "arg_perigee_deg": 165.362,
      "mean_anomaly_deg": 194.776,
      "mean_motion_rev_day": 14.87796013
    }
  ]
}